{
  "type": "Feature",
  "properties": {},
  "geometry": {
    "coordinates": [
      [
        [
          -73.0522774708293,
          46.437968417966374
        ],
        [
          -76.15321265252634,
          46.437968417966374
        ],
        [
          -76.15321265252634,
          45.31853048608002
        ],
        [
          -73.0522774708293,
          45.31853048608002
        ],
        [
          -73.0522774708293,
          46.437968417966374
        ]
      ]
    ],
    "type": "Polygon"
  }
}
